[{"OBJECT_NAME":"ONEWEB-0533","OBJECT_ID":"2023-004B","EPOCH":"2026-03-09T21:24:01.136448","MEAN_MOTION":13.12443329,"ECCENTRICITY":0.00016064,"INCLINATION":87.9007,"RA_OF_ASC_NODE":10.3749,"ARG_OF_PERICENTER":78.428,"MEAN_ANOMALY":281.7029,"EPHEMERIS_TYPE":0,"CLASSIFICATION_TYPE":"U","NORAD_CAT_ID":55141,"ELEMENT_SET_NO":999,"REV_AT_EPOCH":15503,"BSTAR":0.0011230774,"MEAN_MOTION_DOT":4.17e-6,"MEAN_MOTION_DDOT":0},{"OBJECT_NAME":"DELTA 1 DEB","OBJECT_ID":"1975-052AB","EPOCH":"2026-03-09T10:54:22.149792","MEAN_MOTION":12.43362362,"ECCENTRICITY":0.05127841,"INCLINATION":99.5584,"RA_OF_ASC_NODE":350.5616,"ARG_OF_PERICENTER":15.5883,"MEAN_ANOMALY":34.6292,"EPHEMERIS_TYPE":0,"CLASSIFICATION_TYPE":"U","NORAD_CAT_ID":21290,"ELEMENT_SET_NO":999,"REV_AT_EPOCH":58044,"BSTAR":0.00066785054,"MEAN_MOTION_DOT":1.17e-6,"MEAN_MOTION_DDOT":0}]
